timestamp,x_km,y_km,z_km,vx_km_s,vy_km_s,vz_km_s,name
2025-06-30T02:04:58.486959,7605.00358184002,646.4364434404629,2334.1062656308245,-1.9493685256107172,4.866199640494169,4.742566653723126,2 00051  47.2144  61.1636 0106550 227.8355 131.3344 12.18361988888158
2025-06-30T02:05:58.486959,7477.354726328053,937.3578607600338,2615.22217218182,-2.3046784655382377,4.828886208276894,4.625725868421019,2 00051  47.2144  61.1636 0106550 227.8355 131.3344 12.18361988888158
2025-06-30T02:06:58.486959,7328.560708200083,1225.6284041954693,2888.926722924557,-2.6540359269081955,4.777846368979202,4.495578880155683,2 00051  47.2144  61.1636 0106550 227.8355 131.3344 12.18361988888158
2025-06-30T02:07:58.486959,7159.009184597669,1510.4273104083534,3154.4312137080833,-2.9964260305381654,4.713181698587545,4.352454877161129,2 00051  47.2144  61.1636 0106550 227.8355 131.3344 12.18361988888158
2025-06-30T02:08:58.486959,6969.148305881605,1790.9411112556134,3410.9678872669224,-3.330847946305129,4.6350338727634925,4.196722722224139,2 00051  47.2144  61.1636 0106550 227.8355 131.3344 12.18361988888158
2025-06-30T02:09:58.486959,6759.48577679895,2066.3660421869563,3657.7922951439173,-3.656318087888978,4.54358468863881,4.028790277916336,2 00051  47.2144  61.1636 0106550 227.8355 131.3344 12.18361988888158
2025-06-30T02:10:58.486959,6530.587725485615,2335.910447926476,3894.1856147021704,-3.9718733105956514,4.439055951198851,3.8491035866100085,2 00051  47.2144  61.1636 0106550 227.8355 131.3344 12.18361988888158
2025-06-30T02:11:58.486959,6283.077380530867,2598.7971771618904,4119.4569124375175,-4.276574098952546,4.321709220966782,3.6581459046792077,2 00051  47.2144  61.1636 0106550 227.8355 131.3344 12.18361988888158
2025-06-30T02:12:58.486959,6017.633557152995,2854.2659577896184,4332.9453447959595,-4.569507730462565,4.191845420359731,3.456436591059992,2 00051  47.2144  61.1636 0106550 227.8355 131.3344 12.18361988888158
2025-06-30T02:13:58.486959,5734.988954373667,3101.5757441293567,4534.022287740918,-4.849791401677957,4.049804296767465,3.2445298511208653,2 00051  47.2144  61.1636 0106550 227.8355 131.3344 12.18361988888158
2025-06-30T02:14:58.486959,5435.928265926524,3340.007027430299,4722.093386404565,-5.116575302611324,3.8959637410994077,3.0230133375703176,2 00051  47.2144  61.1636 0106550 227.8355 131.3344 12.18361988888158
2025-06-30T02:15:58.486959,5121.286108486782,3568.8641009445946,4896.600516295568,-5.369045625436191,3.73073896125091,2.7925066108978265,2 00051  47.2144  61.1636 0106550 227.8355 131.3344 12.18361988888158
2025-06-30T02:16:58.486959,4791.944771658897,3787.477270840335,5057.023647720713,-5.606427493438894,3.5545815106515826,2.553659462604477,2 00051  47.2144  61.1636 0106550 227.8355 131.3344 12.18361988888158
2025-06-30T02:17:58.486959,4448.831795003091,3995.205004267899,5202.882605309248,-5.827987796264118,3.3679781727730083,2.3071501052262087,2 00051  47.2144  61.1636 0106550 227.8355 131.3344 12.18361988888158
2025-06-30T02:18:58.486959,4092.9173782180974,4191.436005976508,5333.7387148034295,-6.033037917642134,3.1714497031902793,2.053683233887354,2 00051  47.2144  61.1636 0106550 227.8355 131.3344 12.18361988888158
2025-06-30T02:19:58.486959,3725.211631407144,4375.591215011564,5449.196329601353,-6.2209363420027675,2.9655494315007522,1.7939879648322563,2 00051  47.2144  61.1636 0106550 227.8355 131.3344 12.18361988888158
2025-06-30T02:20:58.486959,3346.761673171008,4547.125713184607,5548.904229891663,-6.39109112664305,2.7508617261244273,1.5288156570949178,2 00051  47.2144  61.1636 0106550 227.8355 131.3344 12.18361988888158
2025-06-30T02:21:58.486959,2958.648585029494,4705.530537232348,5632.556887627644,-6.5429622264588465,2.5280003257080006,1.2589376241357266,2 00051  47.2144  61.1636 0106550 227.8355 131.3344 12.18361988888158
2025-06-30T02:22:58.486959,2561.984231450456,4850.334386822979,5699.895591018008,-6.67606365862669,2.2976065415747535,0.9851427429598841,2 00051  47.2144  61.1636 0106550 227.8355 131.3344 12.18361988888158
2025-06-30T02:23:58.486959,2157.9079554731793,4981.105220872332,5750.709422692837,-6.789965495079141,2.0603473363570726,0.7082349688718668,2 00051  47.2144  61.1636 0106550 227.8355 131.3344 12.18361988888158
2025-06-30T02:24:58.486959,1747.5831606212619,5097.451734961586,5784.83608620968,-6.884295671117825,1.816913284658291,0.4290307646671232,2 00051  47.2144  61.1636 0106550 227.8355 131.3344 12.18361988888158
2025-06-30T02:25:58.486959,1332.193790461886,5199.024713024095,5802.162576110842,-6.958741599079495,1.5680164222918314,0.1483564536836176,2 00051  47.2144  61.1636 0106550 227.8355 131.3344 12.18361988888158
2025-06-30T02:26:58.486959,912.940717793018,5285.518246884107,5802.625687321608,-7.013051576607493,1.3143879913439058,-0.13295449325987047,2 00051  47.2144  61.1636 0106550 227.8355 131.3344 12.18361988888158
2025-06-30T02:27:58.486959,491.03805603604985,5356.670817681101,5786.212360289583,-7.047035979787125,1.0567760890074636,-0.4140642264191984,2 00051  47.2144  61.1636 0106550 227.8355 131.3344 12.18361988888158
2025-06-30T02:28:58.486959,67.70940595100983,5412.266233708226,5752.959858909422,-7.060568232190302,0.795943228823321,-0.6941333299940016,2 00051  47.2144  61.1636 0106550 227.8355 131.3344 12.18361988888158
2025-06-30T02:29:58.486959,-355.8159487037229,5452.134419723013,5702.955778950765,-7.053585541741706,0.5326638236504205,-0.972323667588566,2 00051  47.2144  61.1636 0106550 227.8355 131.3344 12.18361988888158
2025-06-30T02:30:58.486959,-778.3068824971732,5476.152053359294,5636.337885411998,-7.026089398275867,0.26772160035660586,-1.2478012480386065,2 00051  47.2144  61.1636 0106550 227.8355 131.3344 12.18361988888158
2025-06-30T02:31:58.486959,-1198.534292179749,5484.243044877448,5553.293777953988,-6.978145825703886,0.001906956867297932,-1.5197390989185202,2 00051  47.2144  61.1636 0106550 227.8355 131.3344 12.18361988888158
2025-06-30T02:32:58.486959,-1615.2749682671486,5476.378857134603,5454.060384328203,-6.909885383855096,-0.2639857271629294,-1.787320134625008,2 00051  47.2144  61.1636 0106550 227.8355 131.3344 12.18361988888158
2025-06-30T02:33:58.486959,-2027.3154592962849,5452.578663338822,5338.9232824970895,-6.821502916305123,-0.5291608142092918,-2.049740005584799,2 00051  47.2144  61.1636 0106550 227.8355 131.3344 12.18361988888158
2025-06-30T02:34:58.486959,-2433.4559135540526,5412.909340861486,5208.21585293213,-6.713257041830828,-0.792824154915654,-2.306209914886879,2 00051  47.2144  61.1636 0106550 227.8355 131.3344 12.18361988888158
2025-06-30T02:35:58.486959,-2832.513882779879,5357.485300143209,5062.318263452093,-6.585469388615487,-1.0541858433641471,-2.555959388325825,2 00051  47.2144  61.1636 0106550 227.8355 131.3344 12.18361988888158
2025-06-30T02:36:58.486959,-3223.328072702187,5286.468148473134,4901.65628968028,-6.438523571759955,-1.3124629684708928,-2.798238983989138,2 00051  47.2144  61.1636 0106550 227.8355 131.3344 12.18361988888158
2025-06-30T02:37:58.486959,-3604.762024859195,5200.06618925581,4726.699975179566,-6.272863916372779,-1.5668823477763496,-3.032322927230365,2 00051  47.2144  61.1636 0106550 227.8355 131.3344 12.18361988888158
2025-06-30T02:38:58.486959,-3975.7077146973566,5098.53375816736,4537.962136047042,-6.088993930089728,-1.8166832299230236,-3.2575116572402982,2 00051  47.2144  61.1636 0106550 227.8355 131.3344 12.18361988888158
2025-06-30T02:39:58.486959,-4335.089051021796,4982.1703984451915,4335.996715632562,-5.887474530633514,-2.061119951883352,-3.473134271570553,2 00051  47.2144  61.1636 0106550 227.8355 131.3344 12.18361988888158
2025-06-30T02:40:58.486959,-4681.865262291887,4851.319878387053,4121.396995842796,-5.668922035759149,-2.299464537042231,-3.6785508553895747,2 00051  47.2144  61.1636 0106550 227.8355 131.3344 12.18361988888158
2025-06-30T02:41:58.486959,-5015.034155727866,4706.3690549686025,3894.7936722796762,-5.434005924683899,-2.5310092203766987,-3.8731546827846386,2 00051  47.2144  61.1636 0106550 227.8355 131.3344 12.18361988888158
2025-06-30T02:42:58.486959,-5333.635235778606,4547.746588311343,3656.852801213594,-5.183446381834541,-2.7550688872539117,-4.056374278103264,2 00051  47.2144  61.1636 0106550 227.8355 131.3344 12.18361988888158
2025-06-30T02:43:58.486959,-5636.752669188458,4375.92151253819,3408.2736271013523,-4.918011635435526,-2.970983412788268,-4.227675326148856,2 00051  47.2144  61.1636 0106550 227.8355 131.3344 12.18361988888158
2025-06-30T02:44:58.486959,-5923.518084693849,4191.401669330865,3149.7863000151324,-4.638515105079384,-3.178119889264693,-4.386562421006997,2 00051  47.2144  61.1636 0106550 227.8355 131.3344 12.18361988888158
2025-06-30T02:45:58.486959,-6193.113196273286,3994.732011241986,2882.149492941213,-4.345812373935492,-3.375874729846631,-4.532580644373588,2 00051  47.2144  61.1636 0106550 227.8355 131.3344 12.18361988888158
2025-06-30T02:46:58.486959,-6444.772239850113,3786.4927825125974,2606.147929437193,-4.040798002648384,-3.5636756376328425,-4.66531696546717,2 00051  47.2144  61.1636 0106550 227.8355 131.3344 12.18361988888158
2025-06-30T02:47:58.486959,-6677.784214420194,3567.2975857797906,2322.5898325770227,-3.724402203204389,-3.74098343011558,-4.784401455934322,2 00051  47.2144  61.1636 0106550 227.8355 131.3344 12.18361988888158
2025-06-30T02:48:58.486959,-6891.494919703508,3337.791343643035,2032.3043064867986,-3.397587392113706,-3.9072937101898697,-4.889508314564564,2 00051  47.2144  61.1636 0106550 227.8355 131.3344 12.18361988888158
2025-06-30T02:49:58.486959,-7085.308783626686,3098.648164555371,1736.1386620384628,-3.0613446431017044,-4.062138376084621,-4.980356698121199,2 00051  47.2144  61.1636 0106550 227.8355 131.3344 12.18361988888158
2025-06-30T02:50:58.486959,-7258.690474179295,2850.569122942833,1434.9556984610404,-2.716690060156828,-4.205086963884764,-5.056711356124454,2 00051  47.2144  61.1636 0106550 227.8355 131.3344 12.18361988888158
